     2.100          NAVIGATION                              RINEX VERSION / TYPE
fic2rin                                 11/25/2017 00:05:07 PGM / RUN BY / DATE
                                                            END OF HEADER
31 17 11 24 16  0  0.0  .159954186529D-03 -.261479726760D-11  .000000000000D+00
     .230000000000D+02  .408437500000D+02  .428553565262D-08 -.252061913845D+01
     .207312405109D-05  .877216970548D-02  .890344381332D-05  .515356646538D+04
     .489600000000D+06 -.175088644028D-06 -.248351474637D+01  .428408384323D-07
     .965396759576D+00  .213406250000D+03 -.215368886133D+00 -.783996942334D-08
    -.322156276245D-09  .100000000000D+01  .197600000000D+04  .000000000000D+00
     .240000000000D+01  .000000000000D+00 -.135041773319D-07  .230000000000D+02
     .482406000000D+06  .400000000000D+01
20 17 11 24 15 59 44.0  .493694096804D-03  .113686837722D-11  .000000000000D+00
     .160000000000D+02 -.180625000000D+02  .539558189050D-08 -.515364211125D+00
    -.828877091408D-06  .464467622805D-02  .868737697601D-05  .515375570297D+04
     .489584000000D+06 -.298023223877D-07  .157159999693D+01 -.111758708954D-07
     .927162052615D+00  .195312500000D+03  .172545137844D+01 -.839749264642D-08
     .298583865788D-09  .100000000000D+01  .197600000000D+04  .000000000000D+00
     .240000000000D+01  .000000000000D+00 -.838190317154D-08  .160000000000D+02
     .483036000000D+06  .400000000000D+01
11 17 11 24 15 59 44.0 -.727847684175D-03 -.170530256582D-11  .000000000000D+00
     .180000000000D+02 -.825937500000D+02  .568487965520D-08 -.229968572595D+01
    -.406429171562D-05  .169027068187D-01  .523589551449D-05  .515374567795D+04
     .489584000000D+06  .162050127983D-06  .217681926389D+00  .163912773132D-06
     .903367790997D+00  .240656250000D+03  .172155076632D+01 -.846320966951D-08
     .625026034843D-10  .100000000000D+01  .197600000000D+04  .000000000000D+00
     .240000000000D+01  .000000000000D+00 -.121071934700D-07  .180000000000D+02
     .484326000000D+06  .400000000000D+01
23 17 11 24 15 59 44.0 -.218793284148D-03 -.113686837722D-12  .000000000000D+00
     .250000000000D+02  .106875000000D+02  .519343061295D-08 -.826708133358D+00
     .599771738052D-06  .118502139812D-01  .643171370029D-05  .515363759804D+04
     .489584000000D+06  .163912773132D-06  .271020160502D+01  .219792127609D-06
     .944032700397D+00  .244406250000D+03 -.241364096298D+01 -.838070623291D-08
    -.209651589973D-09  .100000000000D+01  .197600000000D+04  .000000000000D+00
     .240000000000D+01  .000000000000D+00 -.204890966415D-07  .250000000000D+02
     .488736000000D+06  .400000000000D+01
13 17 11 24 15 59 44.0 -.942493788898D-04 -.341060513165D-12  .000000000000D+00
     .170000000000D+02  .117812500000D+02  .463376444346D-08 -.969887275858D+00
     .638887286186D-06  .363586551975D-02  .671669840813D-05  .515365400887D+04
     .489584000000D+06 -.745058059692D-07  .283897110976D+01 -.558793544769D-08
     .969179698956D+00  .251531250000D+03  .167334493701D+01 -.804533512050D-08
    -.221794952936D-09  .100000000000D+01  .197600000000D+04  .000000000000D+00
     .240000000000D+01  .000000000000D+00 -.116415321827D-07  .170000000000D+02
     .488796000000D+06  .400000000000D+01
11 17 11 24 17 59 44.0 -.727859791368D-03 -.170530256582D-11  .000000000000D+00
     .190000000000D+02 -.741875000000D+02  .588595945955D-08 -.124956286622D+01
    -.360049307346D-05  .169033191632D-01  .588223338127D-05  .515374469376D+04
     .496784000000D+06 -.311061739922D-06  .217619475879D+00  .221654772758D-06
     .903365960887D+00  .238156250000D+03  .172157472599D+01 -.896608775926D-08
     .492877673191D-10  .100000000000D+01  .197600000000D+04  .000000000000D+00
     .240000000000D+01  .000000000000D+00 -.121071934700D-07  .190000000000D+02
     .489606000000D+06  .400000000000D+01
13 17 11 24 17 59 44.0 -.942517071962D-04 -.341060513165D-12  .000000000000D+00
     .180000000000D+02  .135937500000D+02  .467126600555D-08  .803539895348D-01
     .815838575363D-06  .363622629084D-02  .693090260029D-05  .515365476990D+04
     .496784000000D+06 -.558793544769D-08  .283891274665D+01  .931322574615D-08
     .969178237501D+00  .249343750000D+03  .167329752822D+01 -.807497921244D-08
    -.168935608275D-09  .100000000000D+01  .197600000000D+04  .000000000000D+00
     .240000000000D+01  .000000000000D+00 -.116415321827D-07  .180000000000D+02
     .489606000000D+06  .400000000000D+01
20 17 11 24 17 59 44.0  .493702013046D-03  .113686837722D-11  .000000000000D+00
     .170000000000D+02 -.238750000000D+02  .535379443560D-08  .534742417528D+00
    -.115483999252D-05  .464647787157D-02  .933371484280D-05  .515375912666D+04
     .496784000000D+06 -.447034835815D-07  .157153945261D+01  .000000000000D+00
     .927164264547D+00  .183718750000D+03  .172548084747D+01 -.839142096494D-08
     .315013121561D-09  .100000000000D+01  .197600000000D+04  .000000000000D+00
     .240000000000D+01  .000000000000D+00 -.838190317154D-08  .170000000000D+02
     .489606000000D+06  .400000000000D+01
23 17 11 24 17 59 44.0 -.218794215471D-03 -.113686837722D-12  .000000000000D+00
     .260000000000D+02  .126562500000D+02  .528200573103D-08  .223508034212D+00
     .754371285439D-06  .118505468126D-01  .638514757156D-05  .515363825798D+04
     .496784000000D+06 -.186264514923D-07  .271014020927D+01  .121071934700D-06
     .944030618665D+00  .245968750000D+03 -.241364895197D+01 -.854464163291D-08
    -.187150652719D-09  .100000000000D+01  .197600000000D+04  .000000000000D+00
     .240000000000D+01  .000000000000D+00 -.204890966415D-07  .260000000000D+02
     .489606000000D+06  .400000000000D+01
 1 17 11 24 18  0  0.0 -.124541111290D-04 -.238742359215D-11  .000000000000D+00
     .155000000000D+03 -.757187500000D+02  .430232206613D-08 -.603540267098D+00
    -.387988984585D-05  .712598324753D-02  .807270407677D-05  .515368021965D+04
     .496800000000D+06  .707805156708D-07  .632147583324D+00  .102445483208D-06
     .969372099016D+00  .228843750000D+03  .631693550606D+00 -.800283335013D-08
     .696457581682D-10  .100000000000D+01  .197600000000D+04  .000000000000D+00
     .340000000000D+01  .000000000000D+00  .558793544769D-08  .155000000000D+03
     .489606000000D+06  .400000000000D+01
 2 17 11 24 18  0  0.0  .272518023849D-03 -.977706804406D-11  .000000000000D+00
     .141000000000D+03 -.788125000000D+02  .489163232755D-08 -.176413673000D+00
    -.412948429585D-05  .173330464168D-01  .782124698162D-05  .515362928009D+04
     .496800000000D+06 -.141561031342D-06  .574924698550D+00  .240281224251D-06
     .948403759178D+00  .227187500000D+03 -.193663441123D+01 -.852856953487D-08
     .650027076237D-10  .100000000000D+01  .197600000000D+04  .000000000000D+00
     .240000000000D+01  .000000000000D+00 -.204890966415D-07  .141000000000D+03
     .489606000000D+06  .400000000000D+01
 3 17 11 24 18  0  0.0 -.372636131942D-04  .568434188608D-11  .000000000000D+00
     .220000000000D+02 -.115625000000D+01  .469840999335D-08 -.166783413631D+01
    -.800937414169D-07  .112368981354D-02  .880472362041D-05  .515360943604D+04
     .496800000000D+06  .186264514923D-08  .167490737009D+01 -.335276126862D-07
     .959936139890D+00  .211062500000D+03  .592455932842D+00 -.798247535928D-08
     .335371112410D-09  .100000000000D+01  .197600000000D+04  .000000000000D+00
     .240000000000D+01  .000000000000D+00  .232830643654D-08  .220000000000D+02
     .489606000000D+06  .400000000000D+01
 5 17 11 24 18  0  0.0 -.217384658754D-04  .113686837722D-11  .000000000000D+00
     .300000000000D+02 -.125312500000D+02  .496092092798D-08  .234104020227D+01
    -.616535544395D-06  .527488347143D-02  .943057239056D-05  .515359489059D+04
     .496800000000D+06 -.987201929092D-07  .165559825731D+01 -.372529029846D-07
     .946859363876D+00  .190750000000D+03  .628123771556D+00 -.803997775449D-08
     .354657630057D-09  .100000000000D+01  .197600000000D+04  .000000000000D+00
     .240000000000D+01  .000000000000D+00 -.107102096081D-07  .300000000000D+02
     .489606000000D+06  .400000000000D+01
 6 17 11 24 18  0  0.0  .411091838032D-03  .147792889038D-11  .000000000000D+00
     .630000000000D+02 -.820937500000D+02  .425089135240D-08 -.300687808968D+00
    -.443682074547D-05  .659648096189D-03  .837631523609D-05  .515379535484D+04
     .496800000000D+06 -.372529029846D-08  .623806255577D+00  .111758708954D-07
     .969123348815D+00  .221187500000D+03 -.129826150144D+01 -.794854537453D-08
     .485734518507D-10  .100000000000D+01  .197600000000D+04  .000000000000D+00
     .240000000000D+01  .000000000000D+00  .465661287308D-08  .630000000000D+02
     .489606000000D+06  .400000000000D+01
 7 17 11 24 18  0  0.0  .275086145848D-03 -.522959453519D-11  .000000000000D+00
     .240000000000D+02  .390000000000D+02  .440232623170D-08 -.125659000199D+01
     .192224979401D-05  .110757024959D-01  .848807394505D-05  .515371243477D+04
     .496800000000D+06  .273808836937D-06 -.249529404132D+01 -.577419996262D-07
     .960694332295D+00  .215343750000D+03 -.254557694513D+01 -.786639909567D-08
    -.333228166005D-09  .100000000000D+01  .197600000000D+04  .000000000000D+00
     .240000000000D+01  .000000000000D+00 -.111758708954D-07  .240000000000D+02
     .489606000000D+06  .400000000000D+01
 8 17 11 24 18  0  0.0 -.817803665996D-04 -.136424205266D-11  .000000000000D+00
     .170000000000D+02 -.256562500000D+02  .435661004172D-08  .210697651338D+01
    -.129640102386D-05  .290327228140D-02  .360049307346D-05  .515372649574D+04
     .496800000000D+06  .651925802231D-07 -.431312972637D+00  .000000000000D+00
     .968304461402D+00  .312968750000D+03 -.630725261222D+00 -.816891169653D-08
    -.142863093678D-11  .100000000000D+01  .197600000000D+04  .000000000000D+00
     .240000000000D+01  .000000000000D+00  .558793544769D-08  .170000000000D+02
     .489606000000D+06  .400000000000D+01
